[{"OBJECT_NAME":"STARLINK-2585","OBJECT_ID":"2021-038AF","EPOCH":"2026-03-09T22:18:37.992960","MEAN_MOTION":15.30182931,"ECCENTRICITY":0.00013079,"INCLINATION":53.1582,"RA_OF_ASC_NODE":346.6731,"ARG_OF_PERICENTER":114.1663,"MEAN_ANOMALY":245.9475,"EPHEMERIS_TYPE":0,"CLASSIFICATION_TYPE":"U","NORAD_CAT_ID":48382,"ELEMENT_SET_NO":999,"REV_AT_EPOCH":26726,"BSTAR":0.00015256061,"MEAN_MOTION_DOT":4.159e-5,"MEAN_MOTION_DDOT":0},{"OBJECT_NAME":"OBJECT BE","OBJECT_ID":"2025-313BE","EPOCH":"2026-03-09T16:43:59.380320","MEAN_MOTION":15.29801687,"ECCENTRICITY":0.00072083,"INCLINATION":97.3989,"RA_OF_ASC_NODE":145.3568,"ARG_OF_PERICENTER":335.3714,"MEAN_ANOMALY":24.7181,"EPHEMERIS_TYPE":0,"CLASSIFICATION_TYPE":"U","NORAD_CAT_ID":67482,"ELEMENT_SET_NO":999,"REV_AT_EPOCH":797,"BSTAR":0.0026504328,"MEAN_MOTION_DOT":0.00077178,"MEAN_MOTION_DDOT":0}]
